ONEWEB-0228             
1 48780U 21045P   23283.84679572  .00000210  00000+0  52315-3 0  9996
2 48780  87.8932  94.3700 0001755  84.6428 275.4903 13.15547565115435
